{
  "norad_id": 58729,
  "name": "STARLINK-31115",
  "history": [
    {
      "epoch": "2026-03-28T02:15:47.987424Z",
      "apogee_km": 483.5211582114616,
      "perigee_km": 482.54769520943955,
      "latitude_deg": -3.500373216047873e-05,
      "longitude_deg": -103.26237219440773,
      "height_km": 483.1014735611138,
      "semi_major_axis_km": 6861.17142671045,
      "eccentricity": 7.094e-05,
      "inclination_deg": 43.0007,
      "raan_deg": 116.2073,
      "arg_perigee_deg": 233.2769,
      "mean_anomaly_deg": 126.8017,
      "mean_motion_rev_day": 15.27584899
    },
    {
      "epoch": "2026-03-29T01:48:08.840448Z",
      "apogee_km": 483.7255129072546,
      "perigee_km": 482.36151022155536,
      "latitude_deg": -5.063487926340758e-05,
      "longitude_deg": -102.85529432563071,
      "height_km": 483.1358665040429,
      "semi_major_axis_km": 6861.180511564405,
      "eccentricity": 9.94e-05,
      "inclination_deg": 43.0009,
      "raan_deg": 110.668,
      "arg_perigee_deg": 242.3932,
      "mean_anomaly_deg": 117.6818,
      "mean_motion_rev_day": 15.27581865
    },
    {
      "epoch": "2026-03-30T01:20:29.456736Z",
      "apogee_km": 483.77924809533397,
      "perigee_km": 482.29860633024145,
      "latitude_deg": 5.1150561087314986e-05,
      "longitude_deg": -102.44660129304609,
      "height_km": 483.1710834136653,
      "semi_major_axis_km": 6861.175927212787,
      "eccentricity": 0.0001079,
      "inclination_deg": 43.001,
      "raan_deg": 105.1292,
      "arg_perigee_deg": 241.2762,
      "mean_anomaly_deg": 118.7982,
      "mean_motion_rev_day": 15.27583396
    }
  ]
}